CTC1_L_00368001-01
1 72234U 24498AL  26070.40835648  .00000000  00000+0  00000-0 0  9997
2 72234  95.0000   0.0000 0000000   0.0000   0.0000 13.29142335    18
CTC1_L_00368001-02
1 72235U 23014NP  26070.40835648  .00000000  00000+0  00000-0 0  9991
2 72235  95.0000   0.0000 0000000   0.0000  90.0000 13.29142335    18
CTC1_L_00368001-03
1 72236U 24990AN  26070.40835648  .00000000  00000+0  00000-0 0  9996
2 72236  95.0000   0.0000 0000000   0.0000 180.0000 13.29142335    19
CTC1_L_00368001-04
1 72237U 26865NG  26070.40835648  .00000000  00000+0  00000-0 0  9990
2 72237  95.0000   0.0000 0000000   0.0000 270.0000 13.29142335    10
CTC1_L_00368002-01
1 72238U 23104NU  26070.40835648  .00000000  00000+0  00000-0 0  9994
2 72238  95.0000  12.0000 0000000   0.0000  12.0000 13.29142335    18
CTC1_L_00368002-02
1 72239U 25207CQ  26070.40835648  .00000000  00000+0  00000-0 0  9991
2 72239  95.0000  12.0000 0000000   0.0000 102.0000 13.29142335    19
CTC1_L_00368002-03
1 72240U 26733QR  26070.40835648  .00000000  00000+0  00000-0 0  9998
2 72240  95.0000  12.0000 0000000   0.0000 192.0000 13.29142335    10
CTC1_L_00368002-04
1 72241U 24973BC  26070.40835648  .00000000  00000+0  00000-0 0  9993
2 72241  95.0000  12.0000 0000000   0.0000 282.0000 13.29142335    11
CTC1_L_00368003-01
1 72242U 24946SI  26070.40835648  .00000000  00000+0  00000-0 0  9994
2 72242  95.0000  24.0000 0000000   0.0000  24.0000 13.29142335    19
CTC1_L_00368003-02
1 72243U 22929EI  26070.40835648  .00000000  00000+0  00000-0 0  9994
2 72243  95.0000  24.0000 0000000   0.0000 114.0000 13.29142335    10
CTC1_L_00368003-03
1 72244U 22167AQ  26070.40835648  .00000000  00000+0  00000-0 0  9999
2 72244  95.0000  24.0000 0000000   0.0000 204.0000 13.29142335    11
CTC1_L_00368003-04
1 72245U 26373VQ  26070.40835648  .00000000  00000+0  00000-0 0  9993
2 72245  95.0000  24.0000 0000000   0.0000 294.0000 13.29142335    11
CTC1_L_00368004-01
1 72246U 24799UD  26070.40835648  .00000000  00000+0  00000-0 0  9994
2 72246  95.0000  36.0000 0000000   0.0000  36.0000 13.29142335    19
CTC1_L_00368004-02
1 72247U 23219KO  26070.40835648  .00000000  00000+0  00000-0 0  9991
2 72247  95.0000  36.0000 0000000   0.0000 126.0000 13.29142335    10
CTC1_L_00368004-03
1 72248U 25343OK  26070.40835648  .00000000  00000+0  00000-0 0  9992
2 72248  95.0000  36.0000 0000000   0.0000 216.0000 13.29142335    11
CTC1_L_00368004-04
1 72249U 22809QP  26070.40835648  .00000000  00000+0  00000-0 0  9997
2 72249  95.0000  36.0000 0000000   0.0000 306.0000 13.29142335    12
CTC1_L_00368005-01
1 72250U 24639JP  26070.40835648  .00000000  00000+0  00000-0 0  9992
2 72250  95.0000  48.0000 0000000   0.0000  48.0000 13.29142335    10
CTC1_L_00368005-02
1 72251U 25710ID  26070.40835648  .00000000  00000+0  00000-0 0  9994
2 72251  95.0000  48.0000 0000000   0.0000 138.0000 13.29142335    11
CTC1_L_00368005-03
1 72252U 23774LC  26070.40835648  .00000000  00000+0  00000-0 0  9993
2 72252  95.0000  48.0000 0000000   0.0000 228.0000 13.29142335    12
CTC1_L_00368005-04
1 72253U 24860DL  26070.40835648  .00000000  00000+0  00000-0 0  9991
2 72253  95.0000  48.0000 0000000   0.0000 318.0000 13.29142335    13
CTC1_L_00368006-01
1 72254U 22080PF  26070.40835648  .00000000  00000+0  00000-0 0  9994
2 72254  95.0000  60.0000 0000000   0.0000  60.0000 13.29142335    12
CTC1_L_00368006-02
1 72255U 26674S   26070.40835648  .00000000  00000+0  00000-0 0  9998
2 72255  95.0000  60.0000 0000000   0.0000 150.0000 13.29142335    13
CTC1_L_00368006-03
1 72256U 23703FS  26070.40835648  .00000000  00000+0  00000-0 0  9999
2 72256  95.0000  60.0000 0000000   0.0000 240.0000 13.29142335    14
CTC1_L_00368006-04
1 72257U 25125XM  26070.40835648  .00000000  00000+0  00000-0 0  9990
2 72257  95.0000  60.0000 0000000   0.0000 330.0000 13.29142335    15
CTC1_L_00368007-01
1 72258U 23404AH  26070.40835648  .00000000  00000+0  00000-0 0  9999
2 72258  95.0000  72.0000 0000000   0.0000  72.0000 13.29142335    12
CTC1_L_00368007-02
1 72259U 25146JM  26070.40835648  .00000000  00000+0  00000-0 0  9995
2 72259  95.0000  72.0000 0000000   0.0000 162.0000 13.29142335    13
CTC1_L_00368007-03
1 72260U 26826ZO  26070.40835648  .00000000  00000+0  00000-0 0  9993
2 72260  95.0000  72.0000 0000000   0.0000 252.0000 13.29142335    15
CTC1_L_00368007-04
1 72261U 25271FY  26070.40835648  .00000000  00000+0  00000-0 0  9997
2 72261  95.0000  72.0000 0000000   0.0000 342.0000 13.29142335    16
CTC1_L_00368008-01
1 72262U 22905ZJ  26070.40835648  .00000000  00000+0  00000-0 0  9999
2 72262  95.0000  84.0000 0000000   0.0000  84.0000 13.29142335    13
CTC1_L_00368008-02
1 72263U 26321AE  26070.40835648  .00000000  00000+0  00000-0 0  9996
2 72263  95.0000  84.0000 0000000   0.0000 174.0000 13.29142335    14
CTC1_L_00368008-03
1 72264U 22365YR  26070.40835648  .00000000  00000+0  00000-0 0  9991
2 72264  95.0000  84.0000 0000000   0.0000 264.0000 13.29142335    15
CTC1_L_00368008-04
1 72265U 23149TY  26070.40835648  .00000000  00000+0  00000-0 0  9993
2 72265  95.0000  84.0000 0000000   0.0000 354.0000 13.29142335    16
CTC1_L_00368009-01
1 72266U 24361KF  26070.40835648  .00000000  00000+0  00000-0 0  9991
2 72266  95.0000  96.0000 0000000   0.0000  96.0000 13.29142335    13
CTC1_L_00368009-02
1 72267U 23996UU  26070.40835648  .00000000  00000+0  00000-0 0  9995
2 72267  95.0000  96.0000 0000000   0.0000 186.0000 13.29142335    14
CTC1_L_00368009-03
1 72268U 25439DO  26070.40835648  .00000000  00000+0  00000-0 0  9990
2 72268  95.0000  96.0000 0000000   0.0000 276.0000 13.29142335    15
CTC1_L_00368009-04
1 72269U 23163GQ  26070.40835648  .00000000  00000+0  00000-0 0  9993
2 72269  95.0000  96.0000 0000000   0.0000   6.0000 13.29142335    17
CTC1_L_00368010-01
1 72270U 25360IT  26070.40835648  .00000000  00000+0  00000-0 0  9996
2 72270  95.0000 108.0000 0000000   0.0000 108.0000 13.29142335    16
CTC1_L_00368010-02
1 72271U 24792RT  26070.40835648  .00000000  00000+0  00000-0 0  9995
2 72271  95.0000 108.0000 0000000   0.0000 198.0000 13.29142335    16
CTC1_L_00368010-03
1 72272U 23761VI  26070.40835648  .00000000  00000+0  00000-0 0  9991
2 72272  95.0000 108.0000 0000000   0.0000 288.0000 13.29142335    17
CTC1_L_00368010-04
1 72273U 24652FR  26070.40835648  .00000000  00000+0  00000-0 0  9992
2 72273  95.0000 108.0000 0000000   0.0000  18.0000 13.29142335    19
CTC1_L_00368011-01
1 72274U 22041LX  26070.40835648  .00000000  00000+0  00000-0 0  9993
2 72274  95.0000 120.0000 0000000   0.0000 120.0000 13.29142335    18
CTC1_L_00368011-02
1 72275U 22779RG  26070.40835648  .00000000  00000+0  00000-0 0  9992
2 72275  95.0000 120.0000 0000000   0.0000 210.0000 13.29142335    19
CTC1_L_00368011-03
1 72276U 22031TW  26070.40835648  .00000000  00000+0  00000-0 0  9994
2 72276  95.0000 120.0000 0000000   0.0000 300.0000 13.29142335    10
CTC1_L_00368011-04
1 72277U 23723OZ  26070.40835648  .00000000  00000+0  00000-0 0  9994
2 72277  95.0000 120.0000 0000000   0.0000  30.0000 13.29142335    11
CTC1_L_00368012-01
1 72278U 23109VT  26070.40835648  .00000000  00000+0  00000-0 0  9993
2 72278  95.0000 132.0000 0000000   0.0000 132.0000 13.29142335    18
CTC1_L_00368012-02
1 72279U 26229IW  26070.40835648  .00000000  00000+0  00000-0 0  9990
2 72279  95.0000 132.0000 0000000   0.0000 222.0000 13.29142335    19
CTC1_L_00368012-03
1 72280U 22107JK  26070.40835648  .00000000  00000+0  00000-0 0  9993
2 72280  95.0000 132.0000 0000000   0.0000 312.0000 13.29142335    11
CTC1_L_00368012-04
1 72281U 26311W   26070.40835648  .00000000  00000+0  00000-0 0  9995
2 72281  95.0000 132.0000 0000000   0.0000  42.0000 13.29142335    12
CTC1_L_00368013-01
1 72282U 26842QE  26070.40835648  .00000000  00000+0  00000-0 0  9995
2 72282  95.0000 144.0000 0000000   0.0000 144.0000 13.29142335    19
CTC1_L_00368013-02
1 72283U 23136JK  26070.40835648  .00000000  00000+0  00000-0 0  9999
2 72283  95.0000 144.0000 0000000   0.0000 234.0000 13.29142335    10
CTC1_L_00368013-03
1 72284U 23302GH  26070.40835648  .00000000  00000+0  00000-0 0  9995
2 72284  95.0000 144.0000 0000000   0.0000 324.0000 13.29142335    11
CTC1_L_00368013-04
1 72285U 22381KA  26070.40835648  .00000000  00000+0  00000-0 0  9992
2 72285  95.0000 144.0000 0000000   0.0000  54.0000 13.29142335    12
CTC1_L_00368014-01
1 72286U 25173LB  26070.40835648  .00000000  00000+0  00000-0 0  9995
2 72286  95.0000 156.0000 0000000   0.0000 156.0000 13.29142335    19
CTC1_L_00368014-02
1 72287U 24735V   26070.40835648  .00000000  00000+0  00000-0 0  9999
2 72287  95.0000 156.0000 0000000   0.0000 246.0000 13.29142335    10
CTC1_L_00368014-03
1 72288U 25657I   26070.40835648  .00000000  00000+0  00000-0 0  9994
2 72288  95.0000 156.0000 0000000   0.0000 336.0000 13.29142335    11
CTC1_L_00368014-04
1 72289U 23060RV  26070.40835648  .00000000  00000+0  00000-0 0  9991
2 72289  95.0000 156.0000 0000000   0.0000  66.0000 13.29142335    12
CTC1_L_00368015-01
1 72290U 25083ZV  26070.40835648  .00000000  00000+0  00000-0 0  9990
2 72290  95.0000 168.0000 0000000   0.0000 168.0000 13.29142335    10
CTC1_L_00368015-02
1 72291U 26784GB  26070.40835648  .00000000  00000+0  00000-0 0  9990
2 72291  95.0000 168.0000 0000000   0.0000 258.0000 13.29142335    11
CTC1_L_00368015-03
1 72292U 22835LY  26070.40835648  .00000000  00000+0  00000-0 0  9994
2 72292  95.0000 168.0000 0000000   0.0000 348.0000 13.29142335    12
CTC1_L_00368015-04
1 72293U 26554CZ  26070.40835648  .00000000  00000+0  00000-0 0  9997
2 72293  95.0000 168.0000 0000000   0.0000  78.0000 13.29142335    13
CTC1_L_00368016-01
1 72294U 24142DF  26070.40835648  .00000000  00000+0  00000-0 0  9999
2 72294  95.0000 180.0000 0000000   0.0000 180.0000 13.29142335    12
CTC1_L_00368016-02
1 72295U 25047F   26070.40835648  .00000000  00000+0  00000-0 0  9995
2 72295  95.0000 180.0000 0000000   0.0000 270.0000 13.29142335    13
